{"type": "FeatureCollection", "features": [ {"type": "Feature", "properties": {"norad_id": 28649, "name": "IRS-P5 (CARTOSAT-1)", "group": "resource", "lat": -81.23100367467656, "lon": 147.66455308776005, "alt_km": 604.2080201498547, "timestamp": "2025-12-27T03:58:43.834626+00:00", "meta": {"OBJECT_NAME": "IRS-P5 (CARTOSAT-1)", "OBJECT_ID": "2005-017A", "EPOCH": "2025-12-26T20:20:45.652704", "MEAN_MOTION": 14.90451268, "ECCENTRICITY": 4.66e-05, "INCLINATION": 97.5483, "RA_OF_ASC_NODE": 26.6348, "ARG_OF_PERICENTER": 75.7075, "MEAN_ANOMALY": 284.4196, "EPHEMERIS_TYPE": 0, "CLASSIFICATION_TYPE": "U", "NORAD_CAT_ID": 28649, "ELEMENT_SET_NO": 999, "REV_AT_EPOCH": 11814, "BSTAR": 0.00017521, "MEAN_MOTION_DOT": 1.656e-05, "MEAN_MOTION_DDOT": 0}, "tle": {"line1": "1 28649U 05017A   25360.84775061  .00001656  00000+0  17521-3 0  9992", "line2": "2 28649  97.5483  26.6348 0000466  75.7075 284.4196 14.90451268118142"}}, "geometry": {"type": "Point", "coordinates": [147.66455308776005, -81.23100367467656]}}, {"type": "Feature", "properties": {"norad_id": 28893, "name": "SINAH 1", "group": "resource", "lat": -32.247897365352976, "lon": 135.02143397486617, "alt_km": 693.1951269414913, "timestamp": "2025-12-27T03:58:43.834635+00:00", "meta": {"OBJECT_NAME": "SINAH 1", "OBJECT_ID": "2005-043D", "EPOCH": "2025-12-26T19:55:33.657888", "MEAN_MOTION": 14.63977211, "ECCENTRICITY": 0.0015735, "INCLINATION": 98.261, "RA_OF_ASC_NODE": 129.4259, "ARG_OF_PERICENTER": 95.956, "MEAN_ANOMALY": 264.3436, "EPHEMERIS_TYPE": 0, "CLASSIFICATION_TYPE": "U", "NORAD_CAT_ID": 28893, "ELEMENT_SET_NO": 999, "REV_AT_EPOCH": 7530, "BSTAR": 0.00010578, "MEAN_MOTION_DOT": 5.06e-06, "MEAN_MOTION_DDOT": 0}, "tle": {"line1": "1 28893U 05043D   25360.83025067  .00000506  00000+0  10578-3 0  9993", "line2": "2 28893  98.2610 129.4259 0015735  95.9560 264.3436 14.63977211 75309"}}, "geometry": {"type": "Point", "coordinates": [135.02143397486617, -32.247897365352976]}}, {"type": "Feature", "properties": {"norad_id": 29079, "name": "EROS B", "group": "resource", "lat": 73.77704485178508, "lon": -35.208038096358216, "alt_km": 345.686792053054, "timestamp": "2025-12-27T03:58:43.834645+00:00", "meta": {"OBJECT_NAME": "EROS B", "OBJECT_ID": "2006-014A", "EPOCH": "2025-12-26T21:25:47.099136", "MEAN_MOTION": 15.73084638, "ECCENTRICITY": 0.0004877, "INCLINATION": 97.3448, "RA_OF_ASC_NODE": 118.1876, "ARG_OF_PERICENTER": 311.9564, "MEAN_ANOMALY": 48.1283, "EPHEMERIS_TYPE": 0, "CLASSIFICATION_TYPE": "U", "NORAD_CAT_ID": 29079, "ELEMENT_SET_NO": 999, "REV_AT_EPOCH": 9302, "BSTAR": 0.0015917, "MEAN_MOTION_DOT": 0.00222693, "MEAN_MOTION_DDOT": 0}, "tle": {"line1": "1 29079U 06014A   25360.89290624  .00222693  00000+0  15917-2 0  9992", "line2": "2 29079  97.3448 118.1876 0004877 311.9564  48.1283 15.73084638 93026"}}, "geometry": {"type": "Point", "coordinates": [-35.208038096358216, 73.77704485178508]}}, {"type": "Feature", "properties": {"norad_id": 29228, "name": "RESURS-DK 1", "group": "resource", "lat": -67.04524343936879, "lon": -55.78495067984903, "alt_km": 531.3047272746053, "timestamp": "2025-12-27T03:58:43.834655+00:00", "meta": {"OBJECT_NAME": "RESURS-DK 1", "OBJECT_ID": "2006-021A", "EPOCH": "2025-12-26T14:08:19.212000", "MEAN_MOTION": 15.12237827, "ECCENTRICITY": 0.0006959, "INCLINATION": 69.9336, "RA_OF_ASC_NODE": 66.0447, "ARG_OF_PERICENTER": 246.6774, "MEAN_ANOMALY": 113.3659, "EPHEMERIS_TYPE": 0, "CLASSIFICATION_TYPE": "U", "NORAD_CAT_ID": 29228, "ELEMENT_SET_NO": 999, "REV_AT_EPOCH": 7647, "BSTAR": 0.00017973, "MEAN_MOTION_DOT": 3.008e-05, "MEAN_MOTION_DDOT": 0}, "tle": {"line1": "1 29228U 06021A   25360.58911125  .00003008  00000+0  17973-3 0  9990", "line2": "2 29228  69.9336  66.0447 0006959 246.6774 113.3659 15.12237827 76473"}}, "geometry": {"type": "Point", "coordinates": [-55.78495067984903, -67.04524343936879]}}, {"type": "Feature", "properties": {"norad_id": 29268, "name": "ARIRANG-2 (KOMPSAT-2)", "group": "resource", "lat": -77.38694278402694, "lon": -28.990639919369332, "alt_km": 676.7355128913796, "timestamp": "2025-12-27T03:58:43.834665+00:00", "meta": {"OBJECT_NAME": "ARIRANG-2 (KOMPSAT-2)", "OBJECT_ID": "2006-031A", "EPOCH": "2025-12-26T20:44:59.857152", "MEAN_MOTION": 14.64507579, "ECCENTRICITY": 0.0013119, "INCLINATION": 97.826, "RA_OF_ASC_NODE": 188.6491, "ARG_OF_PERICENTER": 260.5149, "MEAN_ANOMALY": 212.4845, "EPHEMERIS_TYPE": 0, "CLASSIFICATION_TYPE": "U", "NORAD_CAT_ID": 29268, "ELEMENT_SET_NO": 999, "REV_AT_EPOCH": 3625, "BSTAR": 0.00016812, "MEAN_MOTION_DOT": 8.47e-06, "MEAN_MOTION_DDOT": 0}, "tle": {"line1": "1 29268U 06031A   25360.86458168  .00000847  00000+0  16812-3 0  9998", "line2": "2 29268  97.8260 188.6491 0013119 260.5149 212.4845 14.64507579 36250"}}, "geometry": {"type": "Point", "coordinates": [-28.990639919369332, -77.38694278402694]}}, {"type": "Feature", "properties": {"norad_id": 29709, "name": "LAPAN-TUBSAT", "group": "resource", "lat": -33.18674532549526, "lon": 166.25649270969964, "alt_km": 626.701042440357, "timestamp": "2025-12-27T03:58:43.834674+00:00", "meta": {"OBJECT_NAME": "LAPAN-TUBSAT", "OBJECT_ID": "2007-001A", "EPOCH": "2025-12-26T20:33:20.531232", "MEAN_MOTION": 14.85690352, "ECCENTRICITY": 0.0013037, "INCLINATION": 98.1268, "RA_OF_ASC_NODE": 351.3035, "ARG_OF_PERICENTER": 32.0907, "MEAN_ANOMALY": 328.1099, "EPHEMERIS_TYPE": 0, "CLASSIFICATION_TYPE": "U", "NORAD_CAT_ID": 29709, "ELEMENT_SET_NO": 999, "REV_AT_EPOCH": 2556, "BSTAR": 8.0954e-05, "MEAN_MOTION_DOT": 6.45e-06, "MEAN_MOTION_DDOT": 0}, "tle": {"line1": "1 29709U 07001A   25360.85648763  .00000645  00000+0  80954-4 0  9992", "line2": "2 29709  98.1268 351.3035 0013037  32.0907 328.1099 14.85690352 25561"}}, "geometry": {"type": "Point", "coordinates": [166.25649270969964, -33.18674532549526]}}, {"type": "Feature", "properties": {"norad_id": 31113, "name": "HAIYANG-1B", "group": "resource", "lat": 37.98471453432877, "lon": 171.42071329815096, "alt_km": 793.5884453830586, "timestamp": "2025-12-27T03:58:43.834684+00:00", "meta": {"OBJECT_NAME": "HAIYANG-1B", "OBJECT_ID": "2007-010A", "EPOCH": "2025-12-26T17:15:05.442336", "MEAN_MOTION": 14.3096964, "ECCENTRICITY": 0.0013504, "INCLINATION": 98.3331, "RA_OF_ASC_NODE": 344.4203, "ARG_OF_PERICENTER": 357.8012, "MEAN_ANOMALY": 2.311, "EPHEMERIS_TYPE": 0, "CLASSIFICATION_TYPE": "U", "NORAD_CAT_ID": 31113, "ELEMENT_SET_NO": 999, "REV_AT_EPOCH": 97596, "BSTAR": 6.9884e-05, "MEAN_MOTION_DOT": 1.42e-06, "MEAN_MOTION_DDOT": 0}, "tle": {"line1": "1 31113U 07010A   25360.71881299  .00000142  00000+0  69884-4 0  9993", "line2": "2 31113  98.3331 344.4203 0013504 357.8012   2.3110 14.30969640975962"}}, "geometry": {"type": "Point", "coordinates": [171.42071329815096, 37.98471453432877]}}, {"type": "Feature", "properties": {"norad_id": 31598, "name": "COSMO-SKYMED 1", "group": "resource", "lat": -24.904430460322473, "lon": -169.65111515299625, "alt_km": 585.462528297805, "timestamp": "2025-12-27T03:58:43.834694+00:00", "meta": {"OBJECT_NAME": "COSMO-SKYMED 1", "OBJECT_ID": "2007-023A", "EPOCH": "2025-12-26T20:03:50.464800", "MEAN_MOTION": 14.95868511, "ECCENTRICITY": 0.0001124, "INCLINATION": 97.8838, "RA_OF_ASC_NODE": 186.3284, "ARG_OF_PERICENTER": 77.6556, "MEAN_ANOMALY": 282.479, "EPHEMERIS_TYPE": 0, "CLASSIFICATION_TYPE": "U", "NORAD_CAT_ID": 31598, "ELEMENT_SET_NO": 999, "REV_AT_EPOCH": 401, "BSTAR": 0.00032288, "MEAN_MOTION_DOT": 3.55e-05, "MEAN_MOTION_DDOT": 0}, "tle": {"line1": "1 31598U 07023A   25360.83600075  .00003550  00000+0  32288-3 0  9991", "line2": "2 31598  97.8838 186.3284 0001124  77.6556 282.4790 14.95868511  4012"}}, "geometry": {"type": "Point", "coordinates": [-169.65111515299625, -24.904430460322473]}}, {"type": "Feature", "properties": {"norad_id": 31698, "name": "TERRASAR-X", "group": "resource", "lat": 58.7981703672868, "lon": -161.1959844890368, "alt_km": 501.78731859889285, "timestamp": "2025-12-27T03:58:43.834704+00:00", "meta": {"OBJECT_NAME": "TERRASAR-X", "OBJECT_ID": "2007-026A", "EPOCH": "2025-12-26T13:13:25.268160", "MEAN_MOTION": 15.19159007, "ECCENTRICITY": 0.0001831, "INCLINATION": 97.4449, "RA_OF_ASC_NODE": 5.7296, "ARG_OF_PERICENTER": 80.7089, "MEAN_ANOMALY": 279.4352, "EPHEMERIS_TYPE": 0, "CLASSIFICATION_TYPE": "U", "NORAD_CAT_ID": 31698, "ELEMENT_SET_NO": 999, "REV_AT_EPOCH": 2701, "BSTAR": 7.4512e-05, "MEAN_MOTION_DOT": 1.498e-05, "MEAN_MOTION_DDOT": 0}, "tle": {"line1": "1 31698U 07026A   25360.55098690  .00001498  00000+0  74512-4 0  9994", "line2": "2 31698  97.4449   5.7296 0001831  80.7089 279.4352 15.19159007 27010"}}, "geometry": {"type": "Point", "coordinates": [-161.1959844890368, 58.7981703672868]}}, {"type": "Feature", "properties": {"norad_id": 32060, "name": "WORLDVIEW-1 (WV-1)", "group": "resource", "lat": 29.49192786612153, "lon": 114.22869113934956, "alt_km": 490.91667842034167, "timestamp": "2025-12-27T03:58:43.834714+00:00", "meta": {"OBJECT_NAME": "WORLDVIEW-1 (WV-1)", "OBJECT_ID": "2007-041A", "EPOCH": "2025-12-26T18:23:37.622688", "MEAN_MOTION": 15.2398676, "ECCENTRICITY": 0.0003036, "INCLINATION": 97.3817, "RA_OF_ASC_NODE": 118.0405, "ARG_OF_PERICENTER": 348.4231, "MEAN_ANOMALY": 11.6936, "EPHEMERIS_TYPE": 0, "CLASSIFICATION_TYPE": "U", "NORAD_CAT_ID": 32060, "ELEMENT_SET_NO": 999, "REV_AT_EPOCH": 1661, "BSTAR": 0.00036369, "MEAN_MOTION_DOT": 8.739e-05, "MEAN_MOTION_DDOT": 0}, "tle": {"line1": "1 32060U 07041A   25360.76640767  .00008739  00000+0  36369-3 0  9998", "line2": "2 32060  97.3817 118.0405 0003036 348.4231  11.6936 15.23986760 16611"}}, "geometry": {"type": "Point", "coordinates": [114.22869113934956, 29.49192786612153]}}]}